STARLINK-3872           
1 52453U 22049C   22136.91667824 -.00061037  00000+0 -43286-3 0  9997
2 52453  53.2176 214.3050 0001500  41.1558 139.4892 15.73240811  1829
STARLINK-3888           
1 52454U 22049D   22136.91667824 -.00047903  00000+0 -33835-3 0  9993
2 52454  53.2176 214.3056 0001568  38.5357 141.4831 15.73232458  1821
STARLINK-3890           
1 52455U 22049E   22136.91667824 -.00075128  00000+0 -53450-3 0  9999
2 52455  53.2176 214.3036 0001503  40.3357 140.9350 15.73249896  1824
STARLINK-3896           
1 52456U 22049F   22136.91667824 -.00093692  00000+0 -66879-3 0  9995
2 52456  53.2176 214.3018 0001539  39.7230 142.1717 15.73262019  1829
STARLINK-3899           
1 52457U 22049G   22137.25001157 -.00003001  00000+0 -16961-4 0  9998
2 52457  53.2178 212.6508 0001797  34.7224 236.7635 15.73206328  1876
STARLINK-3898           
1 52458U 22049H   22137.25001157 -.00002961  00000+0 -16677-4 0  9997
2 52458  53.2178 212.6491 0001514  45.0430 227.0732 15.73206306  1876
STARLINK-3856           
1 52459U 22049J   22137.25001157 -.00002853  00000+0 -15911-4 0  9998
2 52459  53.2178 212.6469 0001610  40.9808 232.3959 15.73206265  1876
STARLINK-3865           
1 52460U 22049K   22137.25001157 -.00003027  00000+0 -17149-4 0  9999
2 52460  53.2178 212.6437 0001578  41.8004 232.8367 15.73206350  1877
STARLINK-3900           
1 52461U 22049L   22137.25001157 -.00003008  00000+0 -17013-4 0  9999
2 52461  53.2178 212.6481 0001661  39.4758 233.2705 15.73206345  1874
STARLINK-3903           
1 52462U 22049M   22137.25001157 -.00003099  00000+0 -17660-4 0  9998
2 52462  53.2178 212.6400 0001513  45.4312 231.0967 15.73206388  1878
STARLINK-3885           
1 52463U 22049N   22137.25001157 -.00002869  00000+0 -16027-4 0  9999
2 52463  53.2178 212.6454 0001527  44.1238 229.8831 15.73206271  1872
STARLINK-3904           
1 52464U 22049P   22137.25001157 -.00003017  00000+0 -17075-4 0  9990
2 52464  53.2178 212.6410 0001566  43.2223 232.6753 15.73206344  1878
STARLINK-3863           
1 52465U 22049Q   22137.25001157 -.00003056  00000+0 -17357-4 0  9997
2 52465  53.2178 212.6428 0001502  45.3297 229.9376 15.73206366  1876
STARLINK-3840           
1 52466U 22049R   22137.25001157 -.00002803  00000+0 -15553-4 0  9993
2 52466  53.2178 212.6370 0001692  37.7411 240.0473 15.73206216  1872
STARLINK-3873           
1 52467U 22049S   22137.25001157 -.00003023  00000+0 -17119-4 0  9999
2 52467  53.2178 212.6386 0001569  43.2412 233.9170 15.73206342  1871
STARLINK-3864           
1 52468U 22049T   22137.25001157 -.00002188  00000+0 -11170-4 0  9992
2 52468  53.2178 212.6330 0001544  44.2798 235.3996 15.73205800  1872
STARLINK-3828           
1 52469U 22049U   22137.25001157 -.00002887  00000+0 -16151-4 0  9993
2 52469  53.2178 212.6360 0001675  39.0087 239.4100 15.73206238  1872
STARLINK-3859           
1 52470U 22049V   22137.25001157 -.00001724  00000+0 -78598-5 0  9998
2 52470  53.2178 212.6304 0001601  41.8431 239.0970 15.73205442  1872
STARLINK-3862           
1 52471U 22049W   22137.25001157 -.00002511  00000+0 -13473-4 0  9994
2 52471  53.2178 212.6347 0001620  40.8314 238.2176 15.73206016  1877
STARLINK-3881           
1 52472U 22049X   22137.25001157 -.00001981  00000+0 -96972-5 0  9991
2 52472  53.2178 212.6277 0001623  40.4995 241.7012 15.73205500  1879
STARLINK-3879           
1 52473U 22049Y   22137.25001157 -.00001941  00000+0 -94080-5 0  9996
2 52473  53.2178 212.6320 0001606  41.7369 238.5729 15.73205623  1874
STARLINK-3855           
1 52474U 22049Z   22137.25001157 -.00003141  00000+0 -17958-4 0  9999
2 52474  53.2178 212.6250 0001602  42.1633 241.2977 15.73206108  1877
STARLINK-3882           
1 52475U 22049AA  22137.25001157 -.00001832  00000+0 -86328-5 0  9993
2 52475  53.2178 212.6294 0001610  41.3252 240.2452 15.73205488  1870
STARLINK-3835           
1 52476U 22049AB  22137.25001157 -.00006756  00000+0 -43734-4 0  9997
2 52476  53.2178 212.6224 0001722  36.8205 247.9002 15.73208195  1878
STARLINK-3860           
1 52477U 22049AC  22137.25001157 -.00002361  00000+0 -12400-4 0  9992
2 52477  53.2178 212.6267 0001644  40.6618 242.1692 15.73205665  1871
STARLINK-3825           
1 52478U 22049AD  22137.25001157 -.00010922  00000+0 -73458-4 0  9995
2 52478  53.2178 212.6211 0001674  39.4037 245.9461 15.73210659  1879
STARLINK-3878           
1 52479U 22049AE  22137.25001157 -.00030472  00000+0 -21326-3 0  9994
2 52479  53.2178 212.6176 0001761  36.5655 250.6695 15.73222657  1874
STARLINK-3839           
1 52480U 22049AF  22137.25001157 -.00022091  00000+0 -15326-3 0  9997
2 52480  53.2178 212.6184 0001829  34.6758 251.9314 15.73217485  1878
STARLINK-3842           
1 52481U 22049AG  22137.25001157 -.00004334  00000+0 -26464-4 0  9994
2 52481  53.2178 212.6240 0001640  40.1898 243.9013 15.73206757  1877
STARLINK-3813           
1 52482U 22049AH  22137.25001157 -.00069164  00000+0 -49141-3 0  9993
2 52482  53.2178 212.6132 0001647  41.1057 248.0079 15.73247289  1876
STARLINK-3875           
1 52483U 22049AJ  22137.25001157 -.00016756  00000+0 -11513-3 0  9995
2 52483  53.2178 212.6201 0001544  45.5112 240.4673 15.73214202  1875
STARLINK-3887           
1 52484U 22049AK  22137.25001157 -.00090320  00000+0 -64433-3 0  9994
2 52484  53.2178 212.6119 0001547  46.3680 243.3689 15.73261043  1870
STARLINK-3913           
1 52485U 22049AL  22137.25001157 -.00052066  00000+0 -36825-3 0  9994
2 52485  53.2178 212.6149 0001793  35.3163 253.1726 15.73236310  1871
STARLINK-3918           
1 52486U 22049AM  22137.25001157 -.00131447  00000+0 -94320-3 0  9990
2 52486  53.2178 212.6093 0001667  39.1582 251.8249 15.73288388  1874
STARLINK-3902           
1 52487U 22049AN  22137.25001157 -.00041452  00000+0 -29199-3 0  9999
2 52487  53.2178 212.6161 0001849  34.0962 253.7657 15.73229553  1872
STARLINK-3892           
1 52488U 22049AP  22136.91667824 -.00879307  00000+0 -66687-2 0  9991
2 52488  53.2176 214.2582 0001524  43.4279 159.0967 15.74141980  1309
STARLINK-3923           
1 52489U 22049AQ  22137.25001157 -.00104937  00000+0 -75029-3 0  9992
2 52489  53.2178 212.6109 0001686  40.5191 249.8430 15.73270705  1871
STARLINK-3914           
1 52490U 22049AR  22136.91667824 -.00880779  00000+0 -66697-2 0  9990
2 52490  53.2176 214.2557 0001597  40.6926 163.0244 15.74180331  1308
STARLINK-3908           
1 52491U 22049AS  22137.25001157 -.00157590  00000+0 -11343-2 0  9996
2 52491  53.2178 212.6083 0001695  41.0948 250.5089 15.73306218  1879
STARLINK-3916           
1 52492U 22049AT  22136.91667824 -.00880891  00000+0 -66582-2 0  9990
2 52492  53.2176 214.2532 0001688  37.1182 167.7807 15.74222243  1304
STARLINK-3883           
1 52493U 22049AU  22136.91667824 -.00880273  00000+0 -66714-2 0  9992
2 52493  53.2176 214.2573 0001653  38.1744 164.9502 15.74159367  1304
STARLINK-3857           
1 52494U 22049AV  22136.91667824 -.00879594  00000+0 -66251-2 0  9993
2 52494  53.2176 214.2483 0001786  33.0624 174.2050 15.74298086  1307
STARLINK-3905           
1 52495U 22049AW  22136.91667824 -.00880967  00000+0 -66650-2 0  9993
2 52495  53.2176 214.2549 0001592  39.4688 164.8384 15.74201979  1306
STARLINK-3871           
1 52496U 22049AX  22137.25001157  .00186393  23785-4  60030-3 0  9990
2 52496  53.2091 212.1214 0011779 318.3389 207.3709 15.90471244  1726
STARLINK-3884           
1 52497U 22049AY  22136.91667824 -.00880590  00000+0 -66501-2 0  9992
2 52497  53.2176 214.2524 0001681  37.3218 168.1697 15.74241527  1303
STARLINK-3925           
1 52498U 22049AZ  22137.25001157 -.00474345  00000+0 -35161-2 0  9997
2 52498  53.2178 212.5949 0001636  41.3547 256.4045 15.73548218  1874
STARLINK-3894           
1 52499U 22049BA  22136.91667824 -.00879992  00000+0 -66373-2 0  9995
2 52499  53.2176 214.2511 0001591  40.1257 165.9403 15.74269316  1302
STARLINK-3866           
1 52500U 22049BB  22136.91667824 -.00878776  00000+0 -66057-2 0  9996
2 52500  53.2176 214.2457 0001532  41.7004 166.7296 15.74344104  1304
STARLINK-3907           
1 52501U 22049BC  22136.91667824 -.00879869  00000+0 -66323-2 0  9997
2 52501  53.2176 214.2499 0001617  38.9923 167.6767 15.74282768  1303
STARLINK-3912           
1 52502U 22049BD  22136.91667824 -.00878279  00000+0 -65895-2 0  9995
2 52502  53.2176 214.2433 0001527  43.9993 165.5987 15.74386019  1300
STARLINK-3861           
1 52503U 22049BE  22136.91667824 -.00878529  00000+0 -65984-2 0  9993
2 52503  53.2176 214.2451 0001530  42.4692 166.5512 15.74362300  1307
FALCON 9 DEB            
1 52504U 22049BF  22136.78320820  .00229467  30394-4  73361-3 0  9993
2 52504  53.2050 214.5003 0013580 306.6096  53.3682 15.90507855  1659
FALCON 9 DEB            
1 52505U 22049BG  22136.78068406  .00237530  31927-4  73938-3 0  9996
2 52505  53.2051 214.4862 0014073 318.2711  41.7243 15.91005179  1651
FALCON 9 DEB            
1 52506U 22049BH  22136.77379611  .00264010  37311-4  77537-3 0  9994
2 52506  53.2073 214.4453 0009410 322.1057  37.9308 15.92199822  1657
FALCON 9 DEB            
1 52507U 22049BJ  22136.77154688  .00274640  39640-4  78900-3 0  9992
2 52507  53.2083 214.4327 0011306 333.7469  26.2985 15.92575936  1657
TIANZHOU-4              
1 52509U 22050A   22136.27605093  .00024849  00000+0  30576-3 0  9996
2 52509  41.4711  52.9070 0003542 349.7873 152.0578 15.59658543 59787
2022-050B               
1 52510U 22050B   22137.13793374  .00558814  12928-3  14245-2 0  9998
2 52510  41.4737  45.5258 0047790 180.1742 179.9098 15.92425472  1162
2022-050C               
1 52511U 22050C   22133.26930593  .15691567  63660-5  38331-2 0  9997
2 52511  41.1126  70.3207 0089819 188.0694 294.4971 16.17944868   562
2022-050D               
1 52512U 22050D   22137.06694750  .00665743  75324-5  47491-3 0  9991
2 52512  41.4920  45.0394 0070690 243.9139 115.4616 16.09371022  1157
